COSMOS 2361 [-]         
1 25590U 98076A   17277.86266271  .00000028  00000-0  13787-4 0  9993
2 25590  82.9370  34.9177 0030375 300.9333 171.3485 13.72938706940729
COSMOS 2378 [-]         
1 26818U 01023A   17277.56696223  .00000045  00000-0  32405-4 0  9991
2 26818  82.9276  56.3262 0031598 254.0780 105.6878 13.73917470818551
COSMOS 2389 [-]         
1 27436U 02026A   17277.84548199  .00000038  00000-0  22973-4 0  9992
2 27436  82.9546   0.0644 0047583 124.1933   7.6542 13.74918051770481
COSMOS 2398 [-]         
1 27818U 03023A   17277.56256177  .00000035  00000-0  21248-4 0  9996
2 27818  82.9493 316.3226 0032236 136.8617 223.5072 13.72148105717934
COSMOS 2407 [+]         
1 28380U 04028A   17277.57108433  .00000075  00000-0  61307-4 0  9993
2 28380  82.9579 267.3462 0040116 135.9450 224.4917 13.76045170663044
COSMOS 2414 [+]         
1 28521U 05002A   17277.81403237  .00000032  00000-0  13515-4 0  9991
2 28521  82.9473 285.9402 0041404  28.4718 331.8728 13.87591308643488
COSMOS 2429 [-]         
1 32052U 07038A   17277.89254869  .00000019  00000-0  31710-5 0  9992
2 32052  82.9840  26.9428 0039818 106.0192 254.5355 13.74893974505020
COSMOS 2454 [-]         
1 35635U 09039A   17277.77445100  .00000051  00000-0  28523-4 0  9995
2 35635  82.9533 275.5153 0019432 353.4747   6.6236 13.89617395416279
COSMOS 2463 [+]         
1 36519U 10017A   17277.96486935  .00000035  00000-0  22727-4 0  9999
2 36519  82.9584  63.5143 0035210 305.9319  53.8570 13.71416684372512
